OBJECT_NAME,OBJECT_ID,EPOCH,MEAN_MOTION,ECCENTRICITY,INCLINATION,RA_OF_ASC_NODE,ARG_OF_PERICENTER,MEAN_ANOMALY,EPHEMERIS_TYPE,CLASSIFICATION_TYPE,NORAD_CAT_ID,ELEMENT_SET_NO,REV_AT_EPOCH,BSTAR,MEAN_MOTION_DOT,MEAN_MOTION_DDOT
STARLINK-11302 [DTC],2024-171E,2024-10-05T22:00:00.999936,15.7678390100,0.0001193000,53.1610000000,219.9371000000,99.8063000000,265.4779000000,0,U,61204,999,366,-0.0016829000,-0.0026824200,0E-10
STARLINK-11277 [DTC],2024-171F,2024-10-06T04:00:01.999584,15.7742406400,0.0000729000,53.1618000000,218.5814000000,103.9200000000,296.1295000000,0,U,61205,999,368,-0.0056277000,-0.0085991400,0E-10
STARLINK-11279 [DTC],2024-171G,2024-10-05T22:00:00.999936,15.7898396000,0.0000932000,53.1628000000,219.7770000000,126.2320000000,317.4358000000,0,U,61206,999,366,-0.0056268000,-0.0091655500,0E-10
STARLINK-11091 [DTC],2024-171H,2024-10-06T04:00:01.999584,15.7669276100,0.0000577000,53.1603000000,218.6374000000,96.4122000000,276.3799000000,0,U,61207,999,363,0.0000811240,0.0001262200,0E-10
STARLINK-11291 [DTC],2024-171J,2024-10-06T04:00:01.999584,15.7950855400,0.0000758000,53.1621000000,218.4814000000,110.5906000000,338.2341000000,0,U,61208,999,368,-0.0053558000,-0.0089580400,0E-10
STARLINK-11304 [DTC],2024-171K,2024-10-05T22:00:00.999936,15.8104514300,0.0000927000,53.1624000000,219.6882000000,126.0489000000,0.6233000000,0,U,61209,999,366,-0.0051035000,-0.0091452000,0E-10
STARLINK-11307 [DTC],2024-171L,2024-10-05T22:00:00.999936,15.8205386400,0.0000879000,53.1622000000,219.6494000000,127.3355000000,18.1025000000,0,U,61210,999,366,-0.0048542000,-0.0091220200,0E-10
STARLINK-11298 [DTC],2024-171M,2024-10-06T04:00:01.999584,15.8253999200,0.0000614000,53.1617000000,218.3593000000,99.6662000000,48.2812000000,0,U,61211,999,368,-0.0046563000,-0.0089687300,0E-10
STARLINK-11310 [DTC],2024-171N,2024-10-06T04:00:01.999584,15.8358363300,0.0000756000,53.1614000000,218.3272000000,119.0620000000,44.4311000000,0,U,61212,999,368,-0.0044463000,-0.0089978700,0E-10
STARLINK-32386,2024-171P,2024-10-06T04:00:01.999584,15.6477588500,0.0001004000,53.1598000000,219.1670000000,86.6829000000,26.8690000000,0,U,61213,999,368,-0.0151500000,-0.0133548900,0E-10
STARLINK-32392,2024-171Q,2024-10-05T22:00:00.999936,15.6552510700,0.0001116000,53.1603000000,220.3815000000,91.6453000000,56.2284000000,0,U,61214,999,366,-0.0148790000,-0.0135001300,0E-10
STARLINK-32436,2024-171R,2024-10-06T04:00:01.999584,15.6477677800,0.0000937000,53.1598000000,219.1629000000,86.4000000000,29.0688000000,0,U,61215,999,368,-0.0151640000,-0.0133659800,0E-10
STARLINK-32425,2024-171S,2024-10-06T04:00:01.999584,15.6477805100,0.0000787000,53.1599000000,219.1552000000,99.6463000000,19.6548000000,0,U,61216,999,367,-0.0151900000,-0.0133862800,0E-10
STARLINK-32342,2024-171T,2024-10-06T04:00:01.999584,15.6477730500,0.0000947000,53.1598000000,219.1510000000,103.5366000000,17.6809000000,0,U,61217,999,368,-0.0151690000,-0.0133701900,0E-10
STARLINK-32423,2024-171U,2024-10-06T04:00:01.999584,15.6477713600,0.0000893000,53.1598000000,219.1472000000,101.3727000000,21.7613000000,0,U,61218,999,368,-0.0151670000,-0.0133683000,0E-10
STARLINK-32248,2024-171V,2024-10-06T04:00:01.999584,15.6477794900,0.0000795000,53.1599000000,219.1430000000,99.0368000000,26.0139000000,0,U,61219,999,367,-0.0151880000,-0.0133847000,0E-10
KINEIS-3C,2024-172A,2024-10-06T05:33:09.082368,14.7712439500,0.0000601000,98.0177000000,6.6110000000,22.8672000000,337.2565000000,0,U,61220,999,225,0.0019966000,0.0001408600,0E-10
KINEIS-3D,2024-172B,2024-10-06T05:32:06.840672,14.7719503800,0.0000581000,98.0177000000,6.6123000000,338.8337000000,21.2848000000,0,U,61221,999,225,0.0020113000,0.0001421400,0E-10
KINEIS-3E,2024-172C,2024-10-06T05:30:49.656960,14.7727901500,0.0000562000,98.0177000000,6.6137000000,147.9836000000,212.1408000000,0,U,61222,999,225,0.0020219000,0.0001431800,0E-10
KINEIS-3A,2024-172D,2024-10-06T05:26:37.756896,14.7756303000,0.0001527000,98.0177000000,6.6176000000,249.3119000000,110.7927000000,0,U,61223,999,225,0.0019787000,0.0001410400,0E-10
KINEIS-3B,2024-172E,2024-10-05T21:16:54.291936,14.7770348700,0.0002035000,98.0177000000,6.2825000000,221.0276000000,139.0782000000,0,U,61224,999,219,0.0023357000,0.0001672000,0E-10
2024-172G,2024-172G,2024-10-06T05:37:06.683232,14.9001615600,0.0056336000,98.0141000000,6.9191000000,0.1142000000,0.0078000000,0,U,61226,999,222,0.0013034000,0.0001291200,0E-10
2024-173A,2024-173A,2024-10-06T05:26:41.421984,15.2486652100,0.0010969000,97.4067000000,352.9061000000,226.3307000000,133.7023000000,0,U,61227,999,183,0.0019969000,0.0004992600,0E-10
2024-173B,2024-173B,2024-10-06T03:49:24.408192,15.2517447400,0.0012062000,97.4034000000,352.8390000000,230.8858000000,129.1308000000,0,U,61228,999,182,0.0021996000,0.0005557000,0E-10
2024-173C,2024-173C,2024-10-06T05:24:47.654784,15.2497945800,0.0011440000,97.4041000000,352.9043000000,231.0793000000,128.9426000000,0,U,61229,999,183,0.0018985000,0.0004761500,0E-10
2024-173D,2024-173D,2024-10-06T04:05:35.679840,15.2509088200,0.0011596000,97.4051000000,352.8527000000,231.3241000000,189.9854000000,0,U,61230,999,182,0.0022241000,0.0005604300,0E-10
2024-173E,2024-173E,2024-10-06T04:07:34.057344,15.2434316800,0.0012003000,97.3980000000,352.8367000000,231.0751000000,185.6137000000,0,U,61231,999,176,0.0002737300,0.0000664000,0E-10
